{
  "type": "FeatureCollection",
  "features": [
    {
      "type": "Feature",
      "properties": {
        "norad_id": 64694,
        "name": "GOSAT-GW (IBUKI GW)",
        "group": "resource",
        "lat": -81.31698680327604,
        "lon": -5.029756026890345,
        "alt_km": 677.2025552976484,
        "timestamp": "2025-12-17T17:50:18.910027+00:00",
        "meta_object_name": "GOSAT-GW (IBUKI GW)",
        "meta_object_id": "2025-141A",
        "meta_epoch": "2025-12-17T08:24:55.111968",
        "meta_mean_motion": 14.67562335,
        "meta_eccentricity": 0.00014359,
        "meta_inclination": 98.0431,
        "meta_ra_of_asc_node": 286.7799,
        "meta_arg_of_pericenter": 83.6812,
        "meta_mean_anomaly": 276.4557,
        "meta_ephemeris_type": 0,
        "meta_classification_type": "U",
        "meta_norad_cat_id": 64694,
        "meta_element_set_no": 999,
        "meta_rev_at_epoch": 2517,
        "meta_bstar": 0.00015898701,
        "meta_mean_motion_dot": 8.54e-06,
        "meta_mean_motion_ddot": 0,
        "tle_line1": "1 64694U 25141A   25351.35063787  .00000854  00000+0  15899-3 0  9998",
        "tle_line2": "2 64694  98.0431 286.7799 0001435  83.6812 276.4557 14.67562335 25178"
      },
      "geometry": {
        "type": "Point",
        "coordinates": [
          -5.029756026890345,
          -81.31698680327604
        ]
      }
    },
    {
      "type": "Feature",
      "properties": {
        "norad_id": 64876,
        "name": "IONOSFERA-M 3",
        "group": "resource",
        "lat": 13.344643742082825,
        "lon": 135.51997547054356,
        "alt_km": 822.1564951073924,
        "timestamp": "2025-12-17T17:50:18.910037+00:00",
        "meta_object_name": "IONOSFERA-M 3",
        "meta_object_id": "2025-155A",
        "meta_epoch": "2025-12-17T06:55:19.972704",
        "meta_mean_motion": 14.21442188,
        "meta_eccentricity": 0.00021207,
        "meta_inclination": 98.5789,
        "meta_ra_of_asc_node": 313.0259,
        "meta_arg_of_pericenter": 52.6561,
        "meta_mean_anomaly": 307.481,
        "meta_ephemeris_type": 0,
        "meta_classification_type": "U",
        "meta_norad_cat_id": 64876,
        "meta_element_set_no": 999,
        "meta_rev_at_epoch": 2056,
        "meta_bstar": 4.8237017e-05,
        "meta_mean_motion_dot": 6.3e-07,
        "meta_mean_motion_ddot": 0,
        "tle_line1": "1 64876U 25155A   25351.28842561  .00000063  00000+0  48237-4 0  9997",
        "tle_line2": "2 64876  98.5789 313.0259 0002120  52.6561 307.4810 14.21442188 20563"
      },
      "geometry": {
        "type": "Point",
        "coordinates": [
          135.51997547054356,
          13.344643742082825
        ]
      }
    },
    {
      "type": "Feature",
      "properties": {
        "norad_id": 64877,
        "name": "IONOSFERA-M 4",
        "group": "resource",
        "lat": -12.940142266767781,
        "lon": -44.62510830084697,
        "alt_km": 824.5623774368651,
        "timestamp": "2025-12-17T17:50:18.910047+00:00",
        "meta_object_name": "IONOSFERA-M 4",
        "meta_object_id": "2025-155B",
        "meta_epoch": "2025-12-17T07:45:49.381344",
        "meta_mean_motion": 14.21443357,
        "meta_eccentricity": 0.00014998,
        "meta_inclination": 98.5786,
        "meta_ra_of_asc_node": 312.9794,
        "meta_arg_of_pericenter": 58.9981,
        "meta_mean_anomaly": 301.1344,
        "meta_ephemeris_type": 0,
        "meta_classification_type": "U",
        "meta_norad_cat_id": 64877,
        "meta_element_set_no": 999,
        "meta_rev_at_epoch": 2056,
        "meta_bstar": 4.7282794e-05,
        "meta_mean_motion_dot": 6.1e-07,
        "meta_mean_motion_ddot": 0,
        "tle_line1": "1 64877U 25155B   25351.32348821  .00000061  00000+0  47283-4 0  9991",
        "tle_line2": "2 64877  98.5786 312.9794 0001499  58.9981 301.1344 14.21443357 20568"
      },
      "geometry": {
        "type": "Point",
        "coordinates": [
          -44.62510830084697,
          -12.940142266767781
        ]
      }
    },
    {
      "type": "Feature",
      "properties": {
        "norad_id": 64899,
        "name": "MICROCARB",
        "group": "resource",
        "lat": -27.971831457330204,
        "lon": 71.29293362300989,
        "alt_km": 671.6303897434045,
        "timestamp": "2025-12-17T17:50:18.910058+00:00",
        "meta_object_name": "MICROCARB",
        "meta_object_id": "2025-156A",
        "meta_epoch": "2025-12-17T04:54:58.705632",
        "meta_mean_motion": 14.72064534,
        "meta_eccentricity": 0.00174014,
        "meta_inclination": 98.0022,
        "meta_ra_of_asc_node": 66.4787,
        "meta_arg_of_pericenter": 131.2144,
        "meta_mean_anomaly": 229.0567,
        "meta_ephemeris_type": 0,
        "meta_classification_type": "U",
        "meta_norad_cat_id": 64899,
        "meta_element_set_no": 999,
        "meta_rev_at_epoch": 2119,
        "meta_bstar": 0.00010769275,
        "meta_mean_motion_dot": 6.29e-06,
        "meta_mean_motion_ddot": 0,
        "tle_line1": "1 64899U 25156A   25351.20484613  .00000629  00000+0  10769-3 0  9991",
        "tle_line2": "2 64899  98.0022  66.4787 0017401 131.2144 229.0567 14.72064534 21196"
      },
      "geometry": {
        "type": "Point",
        "coordinates": [
          71.29293362300989,
          -27.971831457330204
        ]
      }
    },
    {
      "type": "Feature",
      "properties": {
        "norad_id": 64900,
        "name": "CO3D 3",
        "group": "resource",
        "lat": 20.441554139036672,
        "lon": -109.17170425690061,
        "alt_km": 505.06500009853244,
        "timestamp": "2025-12-17T17:50:18.910068+00:00",
        "meta_object_name": "CO3D 3",
        "meta_object_id": "2025-156B",
        "meta_epoch": "2025-12-13T16:46:35.865408",
        "meta_mean_motion": 15.2020033,
        "meta_eccentricity": 0.00013843,
        "meta_inclination": 97.4344,
        "meta_ra_of_asc_node": 64.0523,
        "meta_arg_of_pericenter": 93.9049,
        "meta_mean_anomaly": 266.2345,
        "meta_ephemeris_type": 0,
        "meta_classification_type": "U",
        "meta_norad_cat_id": 64900,
        "meta_element_set_no": 999,
        "meta_rev_at_epoch": 2135,
        "meta_bstar": 0.00015817929,
        "meta_mean_motion_dot": 3.358e-05,
        "meta_mean_motion_ddot": 0,
        "tle_line1": "1 64900U 25156B   25347.69902622  .00003358  00000+0  15818-3 0  9999",
        "tle_line2": "2 64900  97.4344  64.0523 0001384  93.9049 266.2345 15.20200330 21357"
      },
      "geometry": {
        "type": "Point",
        "coordinates": [
          -109.17170425690061,
          20.441554139036672
        ]
      }
    },
    {
      "type": "Feature",
      "properties": {
        "norad_id": 64901,
        "name": "CO3D 4",
        "group": "resource",
        "lat": 21.566374873329444,
        "lon": -109.00243556600724,
        "alt_km": 504.389998940067,
        "timestamp": "2025-12-17T17:50:18.910078+00:00",
        "meta_object_name": "CO3D 4",
        "meta_object_id": "2025-156C",
        "meta_epoch": "2025-12-17T07:40:00.410880",
        "meta_mean_motion": 15.20208936,
        "meta_eccentricity": 0.00011162,
        "meta_inclination": 97.4346,
        "meta_ra_of_asc_node": 67.6213,
        "meta_arg_of_pericenter": 181.0479,
        "meta_mean_anomaly": 179.0754,
        "meta_ephemeris_type": 0,
        "meta_classification_type": "U",
        "meta_norad_cat_id": 64901,
        "meta_element_set_no": 999,
        "meta_rev_at_epoch": 2190,
        "meta_bstar": 0.00023046211,
        "meta_mean_motion_dot": 4.926e-05,
        "meta_mean_motion_ddot": 0,
        "tle_line1": "1 64901U 25156C   25351.31944920  .00004926  00000+0  23046-3 0  9995",
        "tle_line2": "2 64901  97.4346  67.6213 0001116 181.0479 179.0754 15.20208936 21900"
      },
      "geometry": {
        "type": "Point",
        "coordinates": [
          -109.00243556600724,
          21.566374873329444
        ]
      }
    },
    {
      "type": "Feature",
      "properties": {
        "norad_id": 64902,
        "name": "CO3D 2",
        "group": "resource",
        "lat": 12.452590630495884,
        "lon": 66.35489170620451,
        "alt_km": 489.97855549346787,
        "timestamp": "2025-12-17T17:50:18.910088+00:00",
        "meta_object_name": "CO3D 2",
        "meta_object_id": "2025-156D",
        "meta_epoch": "2025-12-12T21:01:26.694624",
        "meta_mean_motion": 15.22031437,
        "meta_eccentricity": 0.00203863,
        "meta_inclination": 97.4215,
        "meta_ra_of_asc_node": 63.2016,
        "meta_arg_of_pericenter": 351.3096,
        "meta_mean_anomaly": 8.7784,
        "meta_ephemeris_type": 0,
        "meta_classification_type": "U",
        "meta_norad_cat_id": 64902,
        "meta_element_set_no": 999,
        "meta_rev_at_epoch": 2122,
        "meta_bstar": 0.00010503321,
        "meta_mean_motion_dot": 2.342e-05,
        "meta_mean_motion_ddot": 0,
        "tle_line1": "1 64902U 25156D   25346.87600341  .00002342  00000+0  10503-3 0  9991",
        "tle_line2": "2 64902  97.4215  63.2016 0020386 351.3096   8.7784 15.22031437 21224"
      },
      "geometry": {
        "type": "Point",
        "coordinates": [
          66.35489170620451,
          12.452590630495884
        ]
      }
    }
  ]
}